CTC1_L_00045016-03
1 17344U 26812MT  26037.47800926  .00000000  00000+0  00000-0 0  9991
2 17344  50.0000 180.0000 0000000   0.0000   0.0000 15.08755970    13
CTC1_L_00045016-04
1 17345U 26465LN  26037.47800926  .00000000  00000+0  00000-0 0  9996
2 17345  50.0000 180.0000 0000000   0.0000  90.0000 15.08755970    13
CTC1_L_00045017-01
1 17346U 22724GF  26037.47800926  .00000000  00000+0  00000-0 0  9991
2 17346  50.0000 192.0000 0000000   0.0000 192.0000 15.08755970    10
CTC1_L_00045017-02
1 17347U 24437OU  26037.47800926  .00000000  00000+0  00000-0 0  9995
2 17347  50.0000 192.0000 0000000   0.0000 282.0000 15.08755970    11
CTC1_L_00045017-03
1 17348U 25951DR  26037.47800926  .00000000  00000+0  00000-0 0  9998
2 17348  50.0000 192.0000 0000000   0.0000  12.0000 15.08755970    13
CTC1_L_00045017-04
1 17349U 26923DX  26037.47800926  .00000000  00000+0  00000-0 0  9999
2 17349  50.0000 192.0000 0000000   0.0000 102.0000 15.08755970    14
CTC1_L_00045018-01
1 17350U 22302EQ  26037.47800926  .00000000  00000+0  00000-0 0  9998
2 17350  50.0000 204.0000 0000000   0.0000 204.0000 15.08755970    13
CTC1_L_00045018-02
1 17351U 22095WA  26037.47800926  .00000000  00000+0  00000-0 0  9998
2 17351  50.0000 204.0000 0000000   0.0000 294.0000 15.08755970    13
CTC1_L_00045018-03
1 17352U 26866VD  26037.47800926  .00000000  00000+0  00000-0 0  9999
2 17352  50.0000 204.0000 0000000   0.0000  24.0000 15.08755970    15
CTC1_L_00045018-04
1 17353U 26993RD  26037.47800926  .00000000  00000+0  00000-0 0  9991
2 17353  50.0000 204.0000 0000000   0.0000 114.0000 15.08755970    16
CTC1_L_00045019-01
1 17354U 23698GL  26037.47800926  .00000000  00000+0  00000-0 0  9991
2 17354  50.0000 216.0000 0000000   0.0000 216.0000 15.08755970    13
CTC1_L_00045019-02
1 17355U 22187CK  26037.47800926  .00000000  00000+0  00000-0 0  9994
2 17355  50.0000 216.0000 0000000   0.0000 306.0000 15.08755970    14
CTC1_L_00045019-03
1 17356U 23785RF  26037.47800926  .00000000  00000+0  00000-0 0  9990
2 17356  50.0000 216.0000 0000000   0.0000  36.0000 15.08755970    15
CTC1_L_00045019-04
1 17357U 24056XT  26037.47800926  .00000000  00000+0  00000-0 0  9993
2 17357  50.0000 216.0000 0000000   0.0000 126.0000 15.08755970    16
CTC1_L_00045020-01
1 17358U 25092MT  26037.47800926  .00000000  00000+0  00000-0 0  9995
2 17358  50.0000 228.0000 0000000   0.0000 228.0000 15.08755970    13
CTC1_L_00045020-02
1 17359U 23558I   26037.47800926  .00000000  00000+0  00000-0 0  9991
2 17359  50.0000 228.0000 0000000   0.0000 318.0000 15.08755970    14
CTC1_L_00045020-03
1 17360U 26469VB  26037.47800926  .00000000  00000+0  00000-0 0  9997
2 17360  50.0000 228.0000 0000000   0.0000  48.0000 15.08755970    16
CTC1_L_00045020-04
1 17361U 23228ET  26037.47800926  .00000000  00000+0  00000-0 0  9998
2 17361  50.0000 228.0000 0000000   0.0000 138.0000 15.08755970    17
CTC1_L_00045021-01
1 17362U 26402UH  26037.47800926  .00000000  00000+0  00000-0 0  9996
2 17362  50.0000 240.0000 0000000   0.0000 240.0000 15.08755970    16
CTC1_L_00045021-02
1 17363U 24769YL  26037.47800926  .00000000  00000+0  00000-0 0  9991
2 17363  50.0000 240.0000 0000000   0.0000 330.0000 15.08755970    17
CTC1_L_00045021-03
1 17364U 25671UH  26037.47800926  .00000000  00000+0  00000-0 0  9995
2 17364  50.0000 240.0000 0000000   0.0000  60.0000 15.08755970    18
CTC1_L_00045021-04
1 17365U 23089HI  26037.47800926  .00000000  00000+0  00000-0 0  9997
2 17365  50.0000 240.0000 0000000   0.0000 150.0000 15.08755970    19
CTC1_L_00045022-01
1 17366U 23195GR  26037.47800926  .00000000  00000+0  00000-0 0  9996
2 17366  50.0000 252.0000 0000000   0.0000 252.0000 15.08755970    16
CTC1_L_00045022-02
1 17367U 23567NQ  26037.47800926  .00000000  00000+0  00000-0 0  9990
2 17367  50.0000 252.0000 0000000   0.0000 342.0000 15.08755970    17
CTC1_L_00045022-03
1 17368U 23338LL  26037.47800926  .00000000  00000+0  00000-0 0  9997
2 17368  50.0000 252.0000 0000000   0.0000  72.0000 15.08755970    18
CTC1_L_00045022-04
1 17369U 25727KT  26037.47800926  .00000000  00000+0  00000-0 0  9992
2 17369  50.0000 252.0000 0000000   0.0000 162.0000 15.08755970    19
CTC1_L_00045023-01
1 17370U 25906AU  26037.47800926  .00000000  00000+0  00000-0 0  9993
2 17370  50.0000 264.0000 0000000   0.0000 264.0000 15.08755970    17
CTC1_L_00045023-02
1 17371U 26474RX  26037.47800926  .00000000  00000+0  00000-0 0  9995
2 17371  50.0000 264.0000 0000000   0.0000 354.0000 15.08755970    18
CTC1_L_00045023-03
1 17372U 24243JK  26037.47800926  .00000000  00000+0  00000-0 0  9998
2 17372  50.0000 264.0000 0000000   0.0000  84.0000 15.08755970    19
CTC1_L_00045023-04
1 17373U 25665YW  26037.47800926  .00000000  00000+0  00000-0 0  9998
2 17373  50.0000 264.0000 0000000   0.0000 174.0000 15.08755970    10
CTC1_L_00045024-01
1 17374U 23654PH  26037.47800926  .00000000  00000+0  00000-0 0  9995
2 17374  50.0000 276.0000 0000000   0.0000 276.0000 15.08755970    17
CTC1_L_00045024-02
1 17375U 24210TK  26037.47800926  .00000000  00000+0  00000-0 0  9995
2 17375  50.0000 276.0000 0000000   0.0000   6.0000 15.08755970    19
CTC1_L_00045024-03
1 17376U 25490NI  26037.47800926  .00000000  00000+0  00000-0 0  9997
2 17376  50.0000 276.0000 0000000   0.0000  96.0000 15.08755970    19
CTC1_L_00045024-04
1 17377U 22162UE  26037.47800926  .00000000  00000+0  00000-0 0  9991
2 17377  50.0000 276.0000 0000000   0.0000 186.0000 15.08755970    10
CTC1_L_00045025-01
1 17378U 25269HV  26037.47800926  .00000000  00000+0  00000-0 0  9993
2 17378  50.0000 288.0000 0000000   0.0000 288.0000 15.08755970    17
CTC1_L_00045025-02
1 17379U 22022IF  26037.47800926  .00000000  00000+0  00000-0 0  9998
2 17379  50.0000 288.0000 0000000   0.0000  18.0000 15.08755970    19
CTC1_L_00045025-03
1 17380U 24642VA  26037.47800926  .00000000  00000+0  00000-0 0  9990
2 17380  50.0000 288.0000 0000000   0.0000 108.0000 15.08755970    11
CTC1_L_00045025-04
1 17381U 26978A   26037.47800926  .00000000  00000+0  00000-0 0  9995
2 17381  50.0000 288.0000 0000000   0.0000 198.0000 15.08755970    11
CTC1_L_00045026-01
1 17382U 22972JM  26037.47800926  .00000000  00000+0  00000-0 0  9996
2 17382  50.0000 300.0000 0000000   0.0000 300.0000 15.08755970    12
CTC1_L_00045026-02
1 17383U 24877FL  26037.47800926  .00000000  00000+0  00000-0 0  9993
2 17383  50.0000 300.0000 0000000   0.0000  30.0000 15.08755970    13
CTC1_L_00045026-03
1 17384U 24522XH  26037.47800926  .00000000  00000+0  00000-0 0  9991
2 17384  50.0000 300.0000 0000000   0.0000 120.0000 15.08755970    14
CTC1_L_00045026-04
1 17385U 26935KG  26037.47800926  .00000000  00000+0  00000-0 0  9992
2 17385  50.0000 300.0000 0000000   0.0000 210.0000 15.08755970    15
CTC1_L_00045027-01
1 17386U 26293YG  26037.47800926  .00000000  00000+0  00000-0 0  9990
2 17386  50.0000 312.0000 0000000   0.0000 312.0000 15.08755970    12
CTC1_L_00045027-02
1 17387U 23166WX  26037.47800926  .00000000  00000+0  00000-0 0  9997
2 17387  50.0000 312.0000 0000000   0.0000  42.0000 15.08755970    13
CTC1_L_00045027-03
1 17388U 24955FL  26037.47800926  .00000000  00000+0  00000-0 0  9995
2 17388  50.0000 312.0000 0000000   0.0000 132.0000 15.08755970    14
CTC1_L_00045027-04
1 17389U 24477RL  26037.47800926  .00000000  00000+0  00000-0 0  9995
2 17389  50.0000 312.0000 0000000   0.0000 222.0000 15.08755970    15
CTC1_L_00045028-01
1 17390U 23891WD  26037.47800926  .00000000  00000+0  00000-0 0  9996
2 17390  50.0000 324.0000 0000000   0.0000 324.0000 15.08755970    13
CTC1_L_00045028-02
1 17391U 23639IZ  26037.47800926  .00000000  00000+0  00000-0 0  9997
2 17391  50.0000 324.0000 0000000   0.0000  54.0000 15.08755970    14
CTC1_L_00045028-03
1 17392U 24620AV  26037.47800926  .00000000  00000+0  00000-0 0  9999
2 17392  50.0000 324.0000 0000000   0.0000 144.0000 15.08755970    15
CTC1_L_00045028-04
1 17393U 24319UQ  26037.47800926  .00000000  00000+0  00000-0 0  9995
2 17393  50.0000 324.0000 0000000   0.0000 234.0000 15.08755970    16
CTC1_L_00045029-01
1 17394U 26872QA  26037.47800926  .00000000  00000+0  00000-0 0  9992
2 17394  50.0000 336.0000 0000000   0.0000 336.0000 15.08755970    13
CTC1_L_00045029-02
1 17395U 25841SK  26037.47800926  .00000000  00000+0  00000-0 0  9998
2 17395  50.0000 336.0000 0000000   0.0000  66.0000 15.08755970    14
CTC1_L_00045029-03
1 17396U 26149CI  26037.47800926  .00000000  00000+0  00000-0 0  9991
2 17396  50.0000 336.0000 0000000   0.0000 156.0000 15.08755970    15
CTC1_L_00045029-04
1 17397U 25665CE  26037.47800926  .00000000  00000+0  00000-0 0  9994
2 17397  50.0000 336.0000 0000000   0.0000 246.0000 15.08755970    16
CTC1_L_00045030-01
1 17398U 25702GM  26037.47800926  .00000000  00000+0  00000-0 0  9997
2 17398  50.0000 348.0000 0000000   0.0000 348.0000 15.08755970    13
CTC1_L_00045030-02
1 17399U 24987FE  26037.47800926  .00000000  00000+0  00000-0 0  9992
2 17399  50.0000 348.0000 0000000   0.0000  78.0000 15.08755970    14
CTC1_L_00045030-03
1 17400U 24347LW  26037.47800926  .00000000  00000+0  00000-0 0  9995
2 17400  50.0000 348.0000 0000000   0.0000 168.0000 15.08755970    17
CTC1_L_00045030-04
1 17401U 23758OE  26037.47800926  .00000000  00000+0  00000-0 0  9991
2 17401  50.0000 348.0000 0000000   0.0000 258.0000 15.08755970    18
